

*******************************************************************************
Ephemeris / WWW_USER Thu May  4 19:54:08 2023 Pasadena, USA      / Horizons
*******************************************************************************
Target body name: Uranus (799)                    {source: ura116}
Center body name: Sun (10)                        {source: ura116}
Center-site name: BODY CENTER
*******************************************************************************
Start time      : A.D. 1963-Jan-01 00:00:00.0000 TDB
Stop  time      : A.D. 2023-Jan-01 00:00:00.0000 TDB
Step-size       : 4320 minutes
*******************************************************************************
Center geodetic : 0.0, 0.0, 0.0                   {E-lon(deg),Lat(deg),Alt(km)}
Center cylindric: 0.0, 0.0, 0.0                   {E-lon(deg),Dxy(km),Dz(km)}
Center radii    : 696000.0, 696000.0, 696000.0 km {Equator_a, b, pole_c}
Output units    : KM-S
Calendar mode   : Mixed Julian/Gregorian
Output type     : GEOMETRIC cartesian states
Output format   : 1 (position only)
Reference frame : Ecliptic of J2000.0
*******************************************************************************
            JDTDB,            Calendar Date (TDB),                      X,                      Y,                      Z,
**************************************************************************************************************************
$$SOE
2443619.500000000, A.D. 1978-Apr-21 00:00:00.0000, -1.986839418969853E+09, -1.953213044821305E+09,  1.853267205925679E+07,
2443622.500000000, A.D. 1978-Apr-24 00:00:00.0000, -1.985617783167801E+09, -1.954554726759468E+09,  1.851193820837963E+07,
2443625.500000000, A.D. 1978-Apr-27 00:00:00.0000, -1.984395301388896E+09, -1.955895629879834E+09,  1.849114260693038E+07,
2443628.500000000, A.D. 1978-Apr-30 00:00:00.0000, -1.983172030390422E+09, -1.957235735084998E+09,  1.847032919599509E+07,
2443631.500000000, A.D. 1978-May-03 00:00:00.0000, -1.981947908765133E+09, -1.958575052031976E+09,  1.844952238345599E+07,
2443634.500000000, A.D. 1978-May-06 00:00:00.0000, -1.980722995635453E+09, -1.959913571722799E+09,  1.842869033182943E+07,
2443637.500000000, A.D. 1978-May-09 00:00:00.0000, -1.979497275974510E+09, -1.961251287337454E+09,  1.840790003891957E+07,
2443640.500000000, A.D. 1978-May-12 00:00:00.0000, -1.978270654370575E+09, -1.962588228714591E+09,  1.838708484648407E+07,
2443643.500000000, A.D. 1978-May-15 00:00:00.0000, -1.977043249234294E+09, -1.963924376154753E+09,  1.836619761712062E+07,
2443646.500000000, A.D. 1978-May-18 00:00:00.0000, -1.975815084097477E+09, -1.965259706256666E+09,  1.834536387560225E+07,
2443649.500000000, A.D. 1978-May-21 00:00:00.0000, -1.974586035890467E+09, -1.966594251441031E+09,  1.832454084410655E+07,
2443652.500000000, A.D. 1978-May-24 00:00:00.0000, -1.973356160279732E+09, -1.967928008213040E+09,  1.830366298527420E+07,
2443655.500000000, A.D. 1978-May-27 00:00:00.0000, -1.972125485000894E+09, -1.969260959711342E+09,  1.828280357092834E+07,
2443658.500000000, A.D. 1978-May-30 00:00:00.0000, -1.970893980968552E+09, -1.970593118655312E+09,  1.826191485653377E+07,
2443661.500000000, A.D. 1978-Jun-02 00:00:00.0000, -1.969661702660100E+09, -1.971924470998505E+09,  1.824100836385965E+07,
2443664.500000000, A.D. 1978-Jun-05 00:00:00.0000, -1.968428574324077E+09, -1.973255020888367E+09,  1.822016876195037E+07,
2443667.500000000, A.D. 1978-Jun-08 00:00:00.0000, -1.967194569287282E+09, -1.974584790819666E+09,  1.819927521237004E+07,
2443670.500000000, A.D. 1978-Jun-11 00:00:00.0000, -1.965959821946460E+09, -1.975913752979301E+09,  1.817831364427197E+07,
2443673.500000000, A.D. 1978-Jun-14 00:00:00.0000, -1.964724273599020E+09, -1.977241901605134E+09,  1.815741337781572E+07,
2443676.500000000, A.D. 1978-Jun-17 00:00:00.0000, -1.963487853752253E+09, -1.978569259900877E+09,  1.813651545378435E+07,
2443679.500000000, A.D. 1978-Jun-20 00:00:00.0000, -1.962250641152029E+09, -1.979895814437606E+09,  1.811558745768642E+07,
2443682.500000000, A.D. 1978-Jun-23 00:00:00.0000, -1.961012595648002E+09, -1.981221569596079E+09,  1.809465615598512E+07,
2443685.500000000, A.D. 1978-Jun-26 00:00:00.0000, -1.959773731344764E+09, -1.982546528730289E+09,  1.807367189860797E+07,
2443688.500000000, A.D. 1978-Jun-29 00:00:00.0000, -1.958534121343544E+09, -1.983870663325924E+09,  1.805271793156123E+07,
2443691.500000000, A.D. 1978-Jul-02 00:00:00.0000, -1.957293646227155E+09, -1.985193995546833E+09,  1.803181705381691E+07,
2443694.500000000, A.D. 1978-Jul-05 00:00:00.0000, -1.956052304602200E+09, -1.986516544945664E+09,  1.801082865278745E+07,
2443697.500000000, A.D. 1978-Jul-08 00:00:00.0000, -1.954810218637533E+09, -1.987838275196923E+09,  1.798981699369752E+07,
2443700.500000000, A.D. 1978-Jul-11 00:00:00.0000, -1.953567325112055E+09, -1.989159189164779E+09,  1.796885629667795E+07,
2443703.500000000, A.D. 1978-Jul-14 00:00:00.0000, -1.952323601126728E+09, -1.990479303127038E+09,  1.794786256205964E+07,
2443706.500000000, A.D. 1978-Jul-17 00:00:00.0000, -1.951079071981899E+09, -1.991798605372036E+09,  1.792687561716747E+07,
2443709.500000000, A.D. 1978-Jul-20 00:00:00.0000, -1.949833688322497E+09, -1.993117107428744E+09,  1.790588762960446E+07,
2443712.500000000, A.D. 1978-Jul-23 00:00:00.0000, -1.948587535543616E+09, -1.994434800131425E+09,  1.788482811326718E+07,
2443715.500000000, A.D. 1978-Jul-26 00:00:00.0000, -1.947340627232996E+09, -1.995751664058020E+09,  1.786381016026175E+07,
2443718.500000000, A.D. 1978-Jul-29 00:00:00.0000, -1.946092828899429E+09, -1.997067728802097E+09,  1.784282975620377E+07,
2443721.500000000, A.D. 1978-Aug-01 00:00:00.0000, -1.944844218993839E+09, -1.998382992787972E+09,  1.782177341898394E+07,
2443724.500000000, A.D. 1978-Aug-04 00:00:00.0000, -1.943594864750155E+09, -1.999697430616292E+09,  1.780071435774457E+07,
2443727.500000000, A.D. 1978-Aug-07 00:00:00.0000, -1.942344672157807E+09, -2.001011060159374E+09,  1.777966993285918E+07,
2443730.500000000, A.D. 1978-Aug-10 00:00:00.0000, -1.941093681199971E+09, -2.002323877033703E+09,  1.775860631081891E+07,
2443733.500000000, A.D. 1978-Aug-13 00:00:00.0000, -1.939841893660594E+09, -2.003635873276983E+09,  1.773757415432274E+07,
2443736.500000000, A.D. 1978-Aug-16 00:00:00.0000, -1.938589253886027E+09, -2.004947071933369E+09,  1.771649506791496E+07,
2443739.500000000, A.D. 1978-Aug-19 00:00:00.0000, -1.937335863841887E+09, -2.006257451242888E+09,  1.769536378692794E+07,
2443742.500000000, A.D. 1978-Aug-22 00:00:00.0000, -1.936081699265572E+09, -2.007566997499313E+09,  1.767431306074905E+07,
2443745.500000000, A.D. 1978-Aug-25 00:00:00.0000, -1.934826661842946E+09, -2.008875744767998E+09,  1.765325200929058E+07,
2443748.500000000, A.D. 1978-Aug-28 00:00:00.0000, -1.933570841758550E+09, -2.010183682780998E+09,  1.763211228428948E+07,
2443751.500000000, A.D. 1978-Aug-31 00:00:00.0000, -1.932314248889210E+09, -2.011490794106270E+09,  1.761100216332424E+07,
2443754.500000000, A.D. 1978-Sep-03 00:00:00.0000, -1.931056843062705E+09, -2.012797092041357E+09,  1.758988951993001E+07,
2443757.500000000, A.D. 1978-Sep-06 00:00:00.0000, -1.929798670778710E+09, -2.014102567673625E+09,  1.756876391200638E+07,
2443760.500000000, A.D. 1978-Sep-09 00:00:00.0000, -1.928539656280125E+09, -2.015407231170590E+09,  1.754767003021383E+07,
2443763.500000000, A.D. 1978-Sep-12 00:00:00.0000, -1.927279809194449E+09, -2.016711094060463E+09,  1.752651094157410E+07,
2443766.500000000, A.D. 1978-Sep-15 00:00:00.0000, -1.926019259912831E+09, -2.018014122120146E+09,  1.750532523379254E+07,
2443769.500000000, A.D. 1978-Sep-18 00:00:00.0000, -1.924757905072921E+09, -2.019316323876007E+09,  1.748421049635053E+07,
2443772.500000000, A.D. 1978-Sep-21 00:00:00.0000, -1.923495678950158E+09, -2.020617727414569E+09,  1.746306700506878E+07,
2443775.500000000, A.D. 1978-Sep-24 00:00:00.0000, -1.922232694479883E+09, -2.021918308839399E+09,  1.744188606058645E+07,
2443778.500000000, A.D. 1978-Sep-27 00:00:00.0000, -1.920968924698432E+09, -2.023218067431675E+09,  1.742071284657145E+07,
2443781.500000000, A.D. 1978-Sep-30 00:00:00.0000, -1.919704360028337E+09, -2.024517011506825E+09,  1.739950177247989E+07,
2443784.500000000, A.D. 1978-Oct-03 00:00:00.0000, -1.918439033606744E+09, -2.025815122587971E+09,  1.737832991743100E+07,
2443787.500000000, A.D. 1978-Oct-06 00:00:00.0000, -1.917172853551120E+09, -2.027112421947234E+09,  1.735718701173687E+07,
2443790.500000000, A.D. 1978-Oct-09 00:00:00.0000, -1.915905872005893E+09, -2.028408916621756E+09,  1.733594107443941E+07,
2443793.500000000, A.D. 1978-Oct-12 00:00:00.0000, -1.914638174715005E+09, -2.029704572792105E+09,  1.731469779415870E+07,
2443796.500000000, A.D. 1978-Oct-15 00:00:00.0000, -1.913369656441158E+09, -2.030999404017186E+09,  1.729352307971323E+07,
2443799.500000000, A.D. 1978-Oct-18 00:00:00.0000, -1.912100323026775E+09, -2.032293424819380E+09,  1.727230279667461E+07,
2443802.500000000, A.D. 1978-Oct-21 00:00:00.0000, -1.910830220473779E+09, -2.033586620729868E+09,  1.725106657662153E+07,
2443805.500000000, A.D. 1978-Oct-24 00:00:00.0000, -1.909559296530646E+09, -2.034879001296188E+09,  1.722982753171229E+07,
2443808.500000000, A.D. 1978-Oct-27 00:00:00.0000, -1.908287624867131E+09, -2.036170554864961E+09,  1.720855248727202E+07,
2443811.500000000, A.D. 1978-Oct-30 00:00:00.0000, -1.907015195271591E+09, -2.037461271199867E+09,  1.718732739600778E+07,
2443814.500000000, A.D. 1978-Nov-02 00:00:00.0000, -1.905741889141480E+09, -2.038751183836960E+09,  1.716609726844287E+07,
2443817.500000000, A.D. 1978-Nov-05 00:00:00.0000, -1.904467815181808E+09, -2.040040279294042E+09,  1.714478793134701E+07,
2443820.500000000, A.D. 1978-Nov-08 00:00:00.0000, -1.903193023192400E+09, -2.041328530431656E+09,  1.712351293789327E+07,
2443823.500000000, A.D. 1978-Nov-11 00:00:00.0000, -1.901917398025873E+09, -2.042615964785375E+09,  1.710225412268257E+07,
